$$SOE
2460154.500000000, A.D. 2023-Jul-29 00:00:00.0000, 1.211563856027462E+09, 5.244635333008953E+09, -3.063298228609324E+07,
2460161.500000000, A.D. 2023-Aug-05 00:00:00.0000, 1.208379247165753E+09, 5.245698851375697E+09, -3.040906442117357E+07,
2460168.500000000, A.D. 2023-Aug-12 00:00:00.0000, 1.205194175552019E+09, 5.246760707252485E+09, -3.018513463094234E+07,
2460175.500000000, A.D. 2023-Aug-19 00:00:00.0000, 1.202008640250523E+09, 5.247820898140622E+09, -2.996119286741352E+07,
2460182.500000000, A.D. 2023-Aug-26 00:00:00.0000, 1.198822640630915E+09, 5.248879421143684E+09, -2.973723910670114E+07,
2460189.500000000, A.D. 2023-Sep-02 00:00:00.0000, 1.195636176345979E+09, 5.249936272986193E+09, -2.951327334759402E+07,
2460196.500000000, A.D. 2023-Sep-09 00:00:00.0000, 1.192449247323004E+09, 5.250991449919766E+09, -2.928929562150264E+07,
2460203.500000000, A.D. 2023-Sep-16 00:00:00.0000, 1.189261853937201E+09, 5.252044947458740E+09, -2.906530603389287E+07,
2460210.500000000, A.D. 2023-Sep-23 00:00:00.0000, 1.186073997783586E+09, 5.253096760232009E+09, -2.884130485189557E+07,
2460217.500000000, A.D. 2023-Sep-30 00:00:00.0000, 1.182885682707758E+09, 5.254146883141851E+09, -2.861729250955367E+07,
2460224.500000000, A.D. 2023-Oct-07 00:00:00.0000, 1.179696913741825E+09, 5.255195313286892E+09, -2.839326935903215E+07,
2460231.500000000, A.D. 2023-Oct-14 00:00:00.0000, 1.176507694985392E+09, 5.256242049336030E+09, -2.816923553377461E+07,
2460238.500000000, A.D. 2023-Oct-21 00:00:00.0000, 1.173318029660199E+09, 5.257287089956060E+09, -2.794519108857679E+07,
2460245.500000000, A.D. 2023-Oct-28 00:00:00.0000, 1.170127920914063E+09, 5.258330433553113E+09, -2.772113610098982E+07,
2460252.500000000, A.D. 2023-Nov-04 00:00:00.0000, 1.166937372124090E+09, 5.259372078557511E+09, -2.749707068211484E+07,
2460259.500000000, A.D. 2023-Nov-11 00:00:00.0000, 1.163746386876717E+09, 5.260412023652169E+09, -2.727299496182323E+07,
2460266.500000000, A.D. 2023-Nov-18 00:00:00.0000, 1.160554968844095E+09, 5.261450267880254E+09, -2.704890907354903E+07,
2460273.500000000, A.D. 2023-Nov-25 00:00:00.0000, 1.157363121629622E+09, 5.262486810654598E+09, -2.682481314325523E+07,
2460280.500000000, A.D. 2023-Dec-02 00:00:00.0000, 1.154170848610831E+09, 5.263521651657769E+09, -2.660070728589821E+07,
2460287.500000000, A.D. 2023-Dec-09 00:00:00.0000, 1.150978152857440E+09, 5.264554790573792E+09, -2.637659162123775E+07,
2460294.500000000, A.D. 2023-Dec-16 00:00:00.0000, 1.147785037412129E+09, 5.265586226664141E+09, -2.615246633429050E+07,
2460301.500000000, A.D. 2023-Dec-23 00:00:00.0000, 1.144591506282478E+09, 5.266615958875428E+09, -2.592833175625849E+07,
2460308.500000000, A.D. 2023-Dec-30 00:00:00.0000, 1.141397564803859E+09, 5.267643987528055E+09, -2.570418825736618E+07,
2460315.500000000, A.D. 2024-Jan-06 00:00:00.0000, 1.138203217600828E+09, 5.268670315225094E+09, -2.548003598213410E+07,
2460322.500000000, A.D. 2024-Jan-13 00:00:00.0000, 1.135008467319758E+09, 5.269694945174520E+09, -2.525587486598277E+07,
2460329.500000000, A.D. 2024-Jan-20 00:00:00.0000, 1.131813315356268E+09, 5.270717880009329E+09, -2.503170479357004E+07,
2460336.500000000, A.D. 2024-Jan-27 00:00:00.0000, 1.128617762548722E+09, 5.271739121757804E+09, -2.480752565973639E+07,
2460343.500000000, A.D. 2024-Feb-03 00:00:00.0000, 1.125421809409414E+09, 5.272758672015243E+09, -2.458333737150931E+07,
2460350.500000000, A.D. 2024-Feb-10 00:00:00.0000, 1.122225456170805E+09, 5.273776532026087E+09, -2.435913984063435E+07,
2460357.500000000, A.D. 2024-Feb-17 00:00:00.0000, 1.119028702785517E+09, 5.274792702684333E+09, -2.413493297886086E+07,
2460364.500000000, A.D. 2024-Feb-24 00:00:00.0000, 1.115831548916015E+09, 5.275807184467052E+09, -2.391071669823456E+07,
2460371.500000000, A.D. 2024-Mar-02 00:00:00.0000, 1.112633993943330E+09, 5.276819977268476E+09, -2.368649092184639E+07,
2460378.500000000, A.D. 2024-Mar-09 00:00:00.0000, 1.109436037133623E+09, 5.277831080071792E+09, -2.346225562297797E+07,
2460385.500000000, A.D. 2024-Mar-16 00:00:00.0000, 1.106237678357912E+09, 5.278840490655928E+09, -2.323801091285515E+07,
2460392.500000000, A.D. 2024-Mar-23 00:00:00.0000, 1.103038919261358E+09, 5.279848206446356E+09, -2.301375707689714E+07,
2460399.500000000, A.D. 2024-Mar-30 00:00:00.0000, 1.099839762641000E+09, 5.280854226483135E+09, -2.278949435611010E+07,
2460406.500000000, A.D. 2024-Apr-06 00:00:00.0000, 1.096640210287931E+09, 5.281858551138565E+09, -2.256522277233458E+07,
2460413.500000000, A.D. 2024-Apr-13 00:00:00.0000, 1.093440262845087E+09, 5.282861180420897E+09, -2.234094225468969E+07,
2460420.500000000, A.D. 2024-Apr-20 00:00:00.0000, 1.090239920728471E+09, 5.283862113540719E+09, -2.211665276114416E+07,
2460427.500000000, A.D. 2024-Apr-27 00:00:00.0000, 1.087039184594810E+09, 5.284861349178697E+09, -2.189235430190611E+07,
2460434.500000000, A.D. 2024-May-04 00:00:00.0000, 1.083838055443551E+09, 5.285858885751299E+09, -2.166804693010020E+07,
2460441.500000000, A.D. 2024-May-11 00:00:00.0000, 1.080636534591549E+09, 5.286854721572934E+09, -2.144373072983122E+07,
2460448.500000000, A.D. 2024-May-18 00:00:00.0000, 1.077434623602413E+09, 5.287848854936377E+09, -2.121940580723858E+07,
2460455.500000000, A.D. 2024-May-25 00:00:00.0000, 1.074232324195254E+09, 5.288841284104666E+09, -2.099507228720951E+07,
2460462.500000000, A.D. 2024-Jun-01 00:00:00.0000, 1.071029638192656E+09, 5.289832007157389E+09, -2.077073032571435E+07,
2460469.500000000, A.D. 2024-Jun-08 00:00:00.0000, 1.067826567754254E+09, 5.290821021668719E+09, -2.054638016201019E+07,
2460476.500000000, A.D. 2024-Jun-15 00:00:00.0000, 1.064623116295428E+09, 5.291808324762525E+09, -2.032202220251060E+07,
2460483.500000000, A.D. 2024-Jun-22 00:00:00.0000, 1.061419289085887E+09, 5.292793914719976E+09, -2.009765694785643E+07,
2460490.500000000, A.D. 2024-Jun-29 00:00:00.0000, 1.058215091406540E+09, 5.293777792319026E+09, -1.987328471709538E+07,
2460497.500000000, A.D. 2024-Jul-06 00:00:00.0000, 1.055010526909624E+09, 5.294759959434765E+09, -1.964890561332107E+07,
2460504.500000000, A.D. 2024-Jul-13 00:00:00.0000, 1.051805598131371E+09, 5.295740417724895E+09, -1.942451967860341E+07,
2460511.500000000, A.D. 2024-Jul-20 00:00:00.0000, 1.048600307171531E+09, 5.296719168549028E+09, -1.920012696212006E+07,
2460518.500000000, A.D. 2024-Jul-27 00:00:00.0000, 1.045394655883781E+09, 5.297696213162404E+09, -1.897572751971221E+07,
2460525.500000000, A.D. 2024-Aug-03 00:00:00.0000, 1.042188645849940E+09, 5.298671552809195E+09, -1.875132140061569E+07,
2460532.500000000, A.D. 2024-Aug-10 00:00:00.0000, 1.038982278303755E+09, 5.299645188711095E+09, -1.852690863707829E+07,
2460539.500000000, A.D. 2024-Aug-17 00:00:00.0000, 1.035775554051612E+09, 5.300617121973252E+09, -1.830248923961401E+07,
2460546.500000000, A.D. 2024-Aug-24 00:00:00.0000, 1.032568473417980E+09, 5.301587353385615E+09, -1.807806320251822E+07,
2460553.500000000, A.D. 2024-Aug-31 00:00:00.0000, 1.029361036331233E+09, 5.302555883058588E+09, -1.785363053551793E+07,
2460560.500000000, A.D. 2024-Sep-07 00:00:00.0000, 1.026153242915332E+09, 5.303522710019743E+09, -1.762919134502602E+07,
2460567.500000000, A.D. 2024-Sep-14 00:00:00.0000, 1.022945094672625E+09, 5.304487832767725E+09, -1.740474589166856E+07,
2460574.500000000, A.D. 2024-Sep-21 00:00:00.0000, 1.019736594228924E+09, 5.305451251196208E+09, -1.718029440451360E+07,
2460581.500000000, A.D. 2024-Sep-28 00:00:00.0000, 1.016527743153378E+09, 5.306412966660393E+09, -1.695583687122250E+07,
2460588.500000000, A.D. 2024-Oct-05 00:00:00.0000, 1.013318541522825E+09, 5.307372980187869E+09, -1.673137314072967E+07,
2460595.500000000, A.D. 2024-Oct-12 00:00:00.0000, 1.010108988870025E+09, 5.308331291814091E+09, -1.650690306192851E+07,
2460602.500000000, A.D. 2024-Oct-19 00:00:00.0000, 1.006899084764829E+09, 5.309287900771749E+09, -1.628242651994896E+07,
2460609.500000000, A.D. 2024-Oct-26 00:00:00.0000, 1.003688828995959E+09, 5.310242805732885E+09, -1.605794343257070E+07,
2460616.500000000, A.D. 2024-Nov-02 00:00:00.0000, 1.000478221610829E+09, 5.311196004955564E+09, -1.583345374249268E+07,
2460623.500000000, A.D. 2024-Nov-09 00:00:00.0000, 9.972672629101456E+08, 5.312147496356093E+09, -1.560895741259813E+07,
2460630.500000000, A.D. 2024-Nov-16 00:00:00.0000, 9.940559534233395E+08, 5.313097277507364E+09, -1.538445442652535E+07,
2460637.500000000, A.D. 2024-Nov-23 00:00:00.0000, 9.908442939119123E+08, 5.314045345513670E+09, -1.515994480284882E+07,
2460644.500000000, A.D. 2024-Nov-30 00:00:00.0000, 9.876322856091261E+08, 5.314991696719631E+09, -1.493542864540148E+07,
2460651.500000000, A.D. 2024-Dec-07 00:00:00.0000, 9.844199311155846E+08, 5.315936326674075E+09, -1.471090623370957E+07,
2460658.500000000, A.D. 2024-Dec-14 00:00:00.0000, 9.812072352621726E+08, 5.316879231572999E+09, -1.448637799025106E+07,
2460665.500000000, A.D. 2024-Dec-21 00:00:00.0000, 9.779942036218621E+08, 5.317820409941009E+09, -1.426184421311140E+07,
2460672.500000000, A.D. 2024-Dec-28 00:00:00.0000, 9.747808406429110E+08, 5.318759861583975E+09, -1.403730499728465E+07,
2460679.500000000, A.D. 2025-Jan-04 00:00:00.0000, 9.715671500007434E+08, 5.319697586189145E+09, -1.381276038843942E+07,
2460686.500000000, A.D. 2025-Jan-11 00:00:00.0000, 9.683531353473380E+08, 5.320633583232627E+09, -1.358821046624136E+07,
2460693.500000000, A.D. 2025-Jan-18 00:00:00.0000, 9.651388005413115E+08, 5.321567852275406E+09, -1.336365534794307E+07,
2460700.500000000, A.D. 2025-Jan-25 00:00:00.0000, 9.619241496023175E+08, 5.322500393173444E+09, -1.313909517311478E+07,
2460707.500000000, A.D. 2025-Feb-01 00:00:00.0000, 9.587091865793970E+08, 5.323431206171651E+09, -1.291453008907318E+07,
2460714.500000000, A.D. 2025-Feb-08 00:00:00.0000, 9.554939153918056E+08, 5.324360291901457E+09, -1.268996024053383E+07,
2460721.500000000, A.D. 2025-Feb-15 00:00:00.0000, 9.522783396712222E+08, 5.325287651261922E+09, -1.246538576754808E+07,
$$EOE